KENT RIDGE 1            
1 41167U 15077B   26169.60410394  .00003355  00000+0  10652-3 0  9992
2 41167  14.9794 255.4525 0008246 258.6029 101.3367 15.23139502581315
DAMPE                   
1 41173U 15078A   26169.73723954  .00001085  00000+0  38988-4 0  9994
2 41173  97.4552 175.2119 0013796  72.1834 288.0910 15.30788680584783
GSAT0209 (GALILEO 12)   
1 41174U 15079A   26169.21194997 -.00000011  00000+0  00000+0 0  9996
2 41174  55.8280 101.2339 0005250 345.1239  14.8344  1.70473656 64794
GSAT0208 (GALILEO 11)   
1 41175U 15079B   26167.08588476 -.00000013  00000+0  00000+0 0  9991
2 41175  55.8253 101.2890 0004864 343.1626  16.7832  1.70473579 65175
ORBCOMM FM110           
1 41182U 15081D   26168.92574824  .00000540  00000+0  15044-3 0  9990
2 41182  47.0033 357.9511 0002494  80.4208 279.6960 14.58881675557736
ORBCOMM FM118           
1 41183U 15081E   26169.57637279  .00002023  00000+0  46386-3 0  9998
2 41183  47.0047 355.2056 0002519  35.8519 324.2536 14.58880676557932
ORBCOMM FM112           
1 41184U 15081F   26169.30697124  .00000434  00000+0  12796-3 0  9997
2 41184  46.9989 264.9520 0003795 222.4136 137.6457 14.58905836559110
ORBCOMM FM113           
1 41185U 15081G   26169.69455345  .00000243  00000+0  87553-4 0  9999
2 41185  47.0007 263.4964 0002335 229.6651 130.4031 14.58859727559150
ORBCOMM FM108           
1 41187U 15081J   26169.04056137  .00000258  00000+0  90814-4 0  9996
2 41187  47.0030 178.1625 0002987 224.9174 135.1471 14.58870752560204
ORBCOMM FM117           
1 41188U 15081K   26169.41699686  .00000163  00000+0  70744-4 0  9995
2 41188  46.9993 175.0163 0003526 229.3841 130.6739 14.58865684560300
ORBCOMM FM116           
1 41189U 15081L   26169.53440260  .00000437  00000+0  12864-3 0  9993
2 41189  47.0018 264.2516 0000528  80.7304 279.3642 14.58885082559133
EXPRESS-AMU1            
1 41191U 15082A   26169.61688912  .00000149  00000+0  00000+0 0  9999
2 41191   0.0178 328.7180 0002807 126.4192  69.9184  1.00274099 38285
GAOFEN-4                
1 41194U 15083A   26169.63062473 -.00000341  00000+0  00000+0 0  9998
2 41194   0.3622  83.8351 0004364 113.5197  42.2100  1.00268207 38541
BELINTERSAT-1           
1 41238U 16001A   26169.54860667  .00000101  00000+0  00000+0 0  9992
2 41238   0.0313 254.4433 0002336 151.5712 109.7381  1.00273297 38256
JASON-3                 
1 41240U 16002A   26169.63369743 -.00000049  00000+0  54088-4 0  9997
2 41240  66.0404 122.7938 0008502 272.7432  87.2614 12.87628064487435
IRNSS-1E                
1 41241U 16003A   26169.67979669 -.00000318  00000+0  00000+0 0  9996
2 41241  33.2374  59.7289 0018966 179.1127  24.5588  1.00277367 38099
EUTELSAT 9B             
1 41310U 16005A   26169.54011330  .00000055  00000+0  00000+0 0  9990
2 41310   0.0845  76.0787 0001665 331.8937  62.2147  1.00271996 38137
NAVSTAR 76 (USA 266)    
1 41328U 16007A   26164.87780105 -.00000028  00000+0  00000+0 0  9996
2 41328  55.5220  89.5909 0096120 247.4205 111.5460  2.00551861 75773
COSMOS 2514 [GLONASS-M] 
1 41330U 16008A   26169.69294475 -.00000056  00000+0  00000+0 0  9996
2 41330  65.0207 312.9548 0011344 198.1525 161.7970  2.13102579 80659
SENTINEL-3A             
1 41335U 16011A   26169.68927954  .00000093  00000+0  56553-4 0  9998
2 41335  98.6250 237.0517 0001411 101.1895 258.9444 14.26732755538278
HORYU-4                 
1 41340U 16012D   26169.06253989  .00440932  72868-4  98167-3 0  9999
2 41340  30.9844  72.5998 0005941 278.9863  81.0127 15.96640257570954
SES-9                   
1 41380U 16013A   26169.61894983 -.00000351  00000+0  00000+0 0  9997
2 41380   0.0108 339.1503 0002065 113.5785 145.2399  1.00265753 37455
EUTELSAT 65 WEST A      
1 41382U 16014A   26169.59678237 -.00000283  00000+0  00000+0 0  9993
2 41382   0.0520 334.0815 0002291 107.8738 334.4929  1.00273164 37535
IRNSS-1F                
1 41384U 16015A   26169.54470663  .00000150  00000+0  00000+0 0  9996
2 41384   5.3523  96.7502 0017448 185.0880 213.4858  1.00268069 37680
COSMOS 2515             
1 41394U 16020A   26169.71185572  .00001778  00000+0  11963-3 0  9995
2 41394  97.9750 185.2446 0022283 299.6462  60.2545 15.07959389560644
BEIDOU-2 IGSO-6         
1 41434U 16021A   26167.12386227 -.00000150  00000+0  00000+0 0  9994
2 41434  60.2243  38.0497 0057184 231.4868 132.3999  1.00259474 37472
IRNSS-1G                
1 41469U 16027A   26169.68898809 -.00000343  00000+0  00000+0 0  9999
2 41469   5.2016  97.4387 0007549 355.5290 191.4476  1.00265368 37195
JCSAT-2B                
1 41471U 16028A   26169.62753024 -.00000172  00000+0  00000+0 0  9996
2 41471   0.0183   4.0294 0000840  79.8703 202.8702  1.00270104 37147
YAOGAN-30 01            
1 41473U 16029A   26169.71512701  .00000892  00000+0  13585-3 0  9998
2 41473  97.9005 219.5798 0014383 224.9919 135.0126 14.76271748543891
GSAT0211 (GALILEO 14)   
1 41549U 16030A   26169.55617319  .00000029  00000+0  00000+0 0  9993
2 41549  55.0948 221.6573 0002964 322.3705  37.6930  1.70473904 62691
GSAT0210 (GALILEO 13)   
1 41550U 16030B   26169.22686126  .00000031  00000+0  00000+0 0  9994
2 41550  55.0944 221.6643 0005022 247.0655 112.9679  1.70473788 62688
